EAGLEEYE                
1 60508U 24149AS  26176.70215188  .00119673  00000+0  88954-3 0  9996
2 60508  97.3723 270.5188 0004849 218.1364 141.9557 15.72456338104273
FLOCK 4BE-29            
1 60509U 24149AT  26177.18688359  .00020062  00000+0  43527-3 0  9994
2 60509  97.3815 263.1962 0001833 232.7384 127.3697 15.44424637103805
TRANSPORTER-11 OBJECT AU
1 60510U 24149AU  26177.15283693  .00016945  00000+0  41999-3 0  9991
2 60510  97.3734 260.9454 0002550 239.2115 120.8881 15.40459109103697
FLOCK 4BE-2             
1 60511U 24149AV  26177.14353114  .00065345  00000+0  10175-2 0  9996
2 60511  97.3835 264.6991 0004184 221.8409 138.2526 15.53667721103891
FLOCK 4BE-13            
1 60512U 24149AW  26176.72190848  .00017552  00000+0  41188-3 0  9999
2 60512  97.3723 261.2227 0003463 220.8979 139.2009 15.42104722103682
FLOCK 4BE-27            
1 60513U 24149AX  26177.19336410  .00010908  00000+0  32766-3 0  9999
2 60513  97.3829 259.0490 0002362 263.5399  96.5575 15.34596756103523
FLOCK 4BE-9             
1 60514U 24149AY  26177.18157012  .00018009  00000+0  43763-3 0  9997
2 60514  97.3795 261.5410 0001842 235.2070 124.9003 15.41048215103702
FLOCK 4BE-6             
1 60516U 24149BA  26177.15252275  .00016744  00000+0  42399-3 0  9991
2 60516  97.3794 260.8531 0002458 241.9390 118.1608 15.39808166103658
FLOCK 4BE-14            
1 60517U 24149BB  26177.19286217  .00020184  00000+0  48653-3 0  9991
2 60517  97.3699 261.0380 0003500 244.9064 115.1820 15.41265800103713
FLOCK 4BE-1             
1 60518U 24149BC  26177.19937215  .00019428  00000+0  44395-3 0  9991
2 60518  97.3784 262.3546 0003323 243.7942 116.2965 15.42881994103768
FLOCK 4BE-28            
1 60519U 24149BD  26177.20007746  .00020439  00000+0  43177-3 0  9992
2 60519  97.3753 263.1075 0003356 237.7453 122.3471 15.45206393103832
IPERDRONE.0             
1 60520U 24149BE  26177.24517590  .00083987  00000+0  75514-3 0  9998
2 60520  97.3778 270.9110 0004158 204.9715 155.1346 15.67967946104338
TRANSPORTER-11 OBJECT BF
1 60521U 24149BF  26176.51718948  .00371911  52728-4  13141-2 0  9991
2 60521  97.3761 273.1261 0007144 230.3122 129.7521 15.89014449104401
CONNECTA IOT-2          
1 60522U 24149BG  26177.17530214  .00005009  00000+0  20940-3 0  9992
2 60522  97.3842 255.1847 0004887 298.9021  61.1726 15.24044943103261
CONNECTA IOT-4          
1 60524U 24149BJ  26177.22576968  .00021890  00000+0  50674-3 0  9999
2 60524  97.3801 261.7039 0004436 243.7068 116.3723 15.42465140103720
ORESAT0.5               
1 60525U 24149BK  26177.18429299  .00022583  00000+0  47347-3 0  9992
2 60525  97.3726 263.3235 0004581 231.4732 128.6107 15.45402518103866
DEIMOS                  
1 60526U 24149BL  26177.02717473  .00021923  00000+0  47371-3 0  9994
2 60526  97.3788 263.2997 0004440 240.1520 119.9287 15.44519858103817
CUAVA-2                 
1 60527U 24149BM  26176.68136399  .00014805  00000+0  42016-3 0  9990
2 60527  97.3731 258.2153 0005366 256.0022 104.0626 15.36298291103475
ERNST                   
1 60528U 24149BN  26177.01067924  .00015437  00000+0  39597-3 0  9998
2 60528  97.3815 260.7971 0004542 255.3128 104.7614 15.39424578103633
TORO                    
1 60530U 24149BQ  26177.13307154  .00001646  00000+0  15009-3 0  9995
2 60530  97.6781 251.6340 0001103  90.4044 269.7304 14.96450030101297
HYPSO-2                 
1 60531U 24149BR  26177.14673566  .00002948  00000+0  24928-3 0  9996
2 60531  97.6812 253.2759 0000879 126.8038 233.3266 14.98827200101395
LEMU NGE                
1 60532U 24149BS  26177.15413657  .00002486  00000+0  23257-3 0  9992
2 60532  97.6842 251.9325 0001609  58.5297 301.6081 14.94987633101299
LEMUR-2-STELLA          
1 60533U 24149BT  26177.01663578  .00012681  00000+0  74201-3 0  9990
2 60533  97.6742 259.5106 0001511  97.1382 263.0020 15.11984379101834
SATELIOT_2              
1 60534U 24149BU  26177.18745230  .00001356  00000+0  12472-3 0  9994
2 60534  97.6829 251.9797 0001787  83.5324 276.6101 14.96391621101310
NIGHTJAR                
1 60535U 24149BV  26176.66957136  .00003281  00000+0  27520-3 0  9996
2 60535  97.6832 253.2577 0000835 109.6387 250.4927 14.99055873144141
LEMUR-2-MARHISYAM       
1 60536U 24149BW  26177.19879850  .00011386  00000+0  67705-3 0  9996
2 60536  97.6882 260.1519 0003274 102.0033 258.1564 15.11425100101846
SATELIOT_4              
1 60537U 24149BX  26177.26330981  .00001540  00000+0  13992-3 0  9992
2 60537  97.6732 251.5753 0002364  38.2049 321.9340 14.96693878101337
PICO-02A021             
1 60538U 24149BY  26176.68641851  .00005970  00000+0  44409-3 0  9997
2 60538  97.6767 255.4450 0004360   8.5117 351.6182 15.03331863101018
ICEYE-X43               
1 60539U 24149BZ  26177.16985954  .00004312  00000+0  35414-3 0  9992
2 60539  97.6814 254.0121 0008147  58.7421 301.4599 14.99680350101460
HAWK-10A                
1 60540U 24149CA  26177.19610843  .00001159  00000+0  10697-3 0  9991
2 60540  97.6891 252.9529 0004353  55.4182 304.7450 14.96537683101334
