OBJECT_NAME,OBJECT_ID,EPOCH,MEAN_MOTION,ECCENTRICITY,INCLINATION,RA_OF_ASC_NODE,ARG_OF_PERICENTER,MEAN_ANOMALY,EPHEMERIS_TYPE,CLASSIFICATION_TYPE,NORAD_CAT_ID,ELEMENT_SET_NO,REV_AT_EPOCH,BSTAR,MEAN_MOTION_DOT,MEAN_MOTION_DDOT
EAGLEEYE,2024-149AS,2026-06-25T16:51:05.922432,15.72456338,.00048491,97.3723,270.5188,218.1364,141.9557,0,U,60508,999,10427,.88954137E-3,.119673E-2,0
FLOCK 4BE-29,2024-149AT,2026-06-26T04:29:06.742176,15.44424637,.00018334,97.3815,263.1962,232.7384,127.3697,0,U,60509,999,10380,.43526936E-3,.20062E-3,0
TRANSPORTER-11 OBJECT AU,2024-149AU,2026-06-26T03:40:05.110752,15.40459109,.00025501,97.3734,260.9454,239.2115,120.8881,0,U,60510,999,10369,.41998522E-3,.16945E-3,0
FLOCK 4BE-2,2024-149AV,2026-06-26T03:26:41.090496,15.53667721,.00041841,97.3835,264.6991,221.8409,138.2526,0,U,60511,999,10389,.10174912E-2,.65345E-3,0
FLOCK 4BE-13,2024-149AW,2026-06-25T17:19:32.892672,15.42104722,.00034637,97.3723,261.2227,220.8979,139.2009,0,U,60512,999,10368,.41188053E-3,.17552E-3,0
FLOCK 4BE-27,2024-149AX,2026-06-26T04:38:26.658240,15.34596756,.00023626,97.3829,259.0490,263.5399,96.5575,0,U,60513,999,10352,.32765551E-3,.10908E-3,0
FLOCK 4BE-9,2024-149AY,2026-06-26T04:21:27.658368,15.41048215,.00018428,97.3795,261.5410,235.2070,124.9003,0,U,60514,999,10370,.43762893E-3,.18009E-3,0
FLOCK 4BE-6,2024-149BA,2026-06-26T03:39:37.965600,15.39808166,.00024584,97.3794,260.8531,241.9390,118.1608,0,U,60516,999,10365,.42399165E-3,.16744E-3,0
FLOCK 4BE-14,2024-149BB,2026-06-26T04:37:43.291488,15.41265800,.00035,97.3699,261.0380,244.9064,115.1820,0,U,60517,999,10371,.48653235E-3,.20184E-3,0
FLOCK 4BE-1,2024-149BC,2026-06-26T04:47:05.753760,15.42881994,.00033233,97.3784,262.3546,243.7942,116.2965,0,U,60518,999,10376,.44395235E-3,.19428E-3,0
FLOCK 4BE-28,2024-149BD,2026-06-26T04:48:06.692544,15.45206393,.00033569,97.3753,263.1075,237.7453,122.3471,0,U,60519,999,10383,.43176958E-3,.20439E-3,0
IPERDRONE.0,2024-149BE,2026-06-26T05:53:03.197760,15.67967946,.0004158,97.3778,270.9110,204.9715,155.1346,0,U,60520,999,10433,.755141E-3,.83987E-3,0
TRANSPORTER-11 OBJECT BF,2024-149BF,2026-06-25T12:24:45.171072,15.89014449,.0007144,97.3761,273.1261,230.3122,129.7521,0,U,60521,999,10440,.13141E-2,.371911E-2,.52728E-4
CONNECTA IOT-2,2024-149BG,2026-06-26T04:12:26.104896,15.24044943,.00048871,97.3842,255.1847,298.9021,61.1726,0,U,60522,999,10326,.20939659E-3,.5009E-4,0
CONNECTA IOT-4,2024-149BJ,2026-06-26T05:25:06.500352,15.42465140,.00044369,97.3801,261.7039,243.7068,116.3723,0,U,60524,999,10372,.50674484E-3,.2189E-3,0
ORESAT0.5,2024-149BK,2026-06-26T04:25:22.914336,15.45402518,.00045818,97.3726,263.3235,231.4732,128.6107,0,U,60525,999,10386,.47347353E-3,.22583E-3,0
DEIMOS,2024-149BL,2026-06-26T00:39:07.896672,15.44519858,.00044404,97.3788,263.2997,240.1520,119.9287,0,U,60526,999,10381,.47370961E-3,.21923E-3,0
CUAVA-2,2024-149BM,2026-06-25T16:21:09.848736,15.36298291,.00053662,97.3731,258.2153,256.0022,104.0626,0,U,60527,999,10347,.42015958E-3,.14805E-3,0
ERNST,2024-149BN,2026-06-26T00:15:22.686336,15.39424578,.00045423,97.3815,260.7971,255.3128,104.7614,0,U,60528,999,10363,.39596979E-3,.15437E-3,0
TORO,2024-149BQ,2026-06-26T03:11:37.381056,14.96450030,.00011038,97.6781,251.6340,90.4044,269.7304,0,U,60530,999,10129,.15009481E-3,.1646E-4,0
HYPSO-2,2024-149BR,2026-06-26T03:31:17.961024,14.98827200,.00008797,97.6812,253.2759,126.8038,233.3266,0,U,60531,999,10139,.24928096E-3,.2948E-4,0
LEMU NGE,2024-149BS,2026-06-26T03:41:57.399648,14.94987633,.00016091,97.6842,251.9325,58.5297,301.6081,0,U,60532,999,10129,.23257007E-3,.2486E-4,0
LEMUR-2-STELLA,2024-149BT,2026-06-26T00:23:57.331392,15.11984379,.0001511,97.6742,259.5106,97.1382,263.0020,0,U,60533,999,10183,.74200973E-3,.12681E-3,0
SATELIOT_2,2024-149BU,2026-06-26T04:29:55.878720,14.96391621,.00017877,97.6829,251.9797,83.5324,276.6101,0,U,60534,999,10131,.12471703E-3,.1356E-4,0
NIGHTJAR,2024-149BV,2026-06-25T16:04:10.965504,14.99055873,.00008351,97.6832,253.2577,109.6387,250.4927,0,U,60535,999,14414,.27519708E-3,.3281E-4,0
LEMUR-2-MARHISYAM,2024-149BW,2026-06-26T04:46:16.190400,15.11425100,.00032748,97.6882,260.1519,102.0033,258.1564,0,U,60536,999,10184,.67705108E-3,.11386E-3,0
SATELIOT_4,2024-149BX,2026-06-26T06:19:09.967584,14.96693878,.00023641,97.6732,251.5753,38.2049,321.9340,0,U,60537,999,10133,.13992362E-3,.154E-4,0
PICO-02A021,2024-149BY,2026-06-25T16:28:26.559264,15.03331863,.000436,97.6767,255.4450,8.5117,351.6182,0,U,60538,999,10101,.44409386E-3,.597E-4,0
ICEYE-X43,2024-149BZ,2026-06-26T04:04:35.864256,14.99680350,.00081472,97.6814,254.0121,58.7421,301.4599,0,U,60539,999,10146,.35414367E-3,.4312E-4,0
HAWK-10A,2024-149CA,2026-06-26T04:42:23.768352,14.96537683,.00043538,97.6891,252.9529,55.4182,304.7450,0,U,60540,999,10133,.1069684E-3,.1159E-4,0
